YAOGAN-39 03A           
1 57986U 23152A   26065.41132036  .00001294  00000+0  55320-4 0  9991
2 57986  35.0006 198.8634 0003912 303.7832  56.2510 15.22956575134768
TRANSPORTER-12 OBJECT G 
1 62615U 25009G   26068.74791969  .00008362  00000+0  34372-3 0  9990
2 62615  97.3986 149.8908 0005288 330.1708  29.9228 15.24410621 63645
