[{"OBJECT_NAME":"YAOGAN-39 03A","OBJECT_ID":"2023-152A","EPOCH":"2026-03-06T09:52:18.079104","MEAN_MOTION":15.22956575,"ECCENTRICITY":0.00039122,"INCLINATION":35.0006,"RA_OF_ASC_NODE":198.8634,"ARG_OF_PERICENTER":303.7832,"MEAN_ANOMALY":56.251,"EPHEMERIS_TYPE":0,"CLASSIFICATION_TYPE":"U","NORAD_CAT_ID":57986,"ELEMENT_SET_NO":999,"REV_AT_EPOCH":13476,"BSTAR":5.5320223e-5,"MEAN_MOTION_DOT":1.294e-5,"MEAN_MOTION_DDOT":0},{"OBJECT_NAME":"TRANSPORTER-12 OBJECT G","OBJECT_ID":"2025-009G","EPOCH":"2026-03-09T17:57:00.262080","MEAN_MOTION":15.24410621,"ECCENTRICITY":0.00052883,"INCLINATION":97.3986,"RA_OF_ASC_NODE":149.8908,"ARG_OF_PERICENTER":330.1708,"MEAN_ANOMALY":29.9228,"EPHEMERIS_TYPE":0,"CLASSIFICATION_TYPE":"U","NORAD_CAT_ID":62615,"ELEMENT_SET_NO":999,"REV_AT_EPOCH":6364,"BSTAR":0.00034372065,"MEAN_MOTION_DOT":8.362e-5,"MEAN_MOTION_DDOT":0}]
